     2.10           NAVIGATION DATA                         RINEX VERSION / TYPE
Spider V7.8.0.9445                      2022 12 21 00:07    PGM / RUN BY / DATE 
    2.1420D-08  0.0000D+00 -5.9605D-08  1.1921D-07          ION ALPHA           
    1.4336D+05 -2.1299D+05  0.0000D+00  2.6214D+05          ION BETA            
    2.793967723846D-09 2.664535259100D-15   405504     2241 DELTA-UTC: A0,A1,T,W
    18                                                      LEAP SECONDS        
                                                            END OF HEADER       
 1 22 12 19 14 00  0.0 2.356213517487D-04-5.115907697473D-12 0.000000000000D+00
    3.200000000000D+01-9.478125000000D+01 3.792300695693D-09 4.271765015474D-01
   -4.975125193596D-06 1.212759001646D-02 8.169561624527D-06 5.153656442642D+03
    1.368000000000D+05-1.341104507446D-07-1.134383541274D+00 1.471489667892D-07
    9.890701622166D-01 2.403125000000D+02 9.383766377821D-01-7.908186994143D-09
   -1.564350871064D-10 1.000000000000D+00 2.241000000000D+03 0.000000000000D+00
    2.000000000000D+00 0.000000000000D+00 4.656612873077D-09 3.200000000000D+01
    1.295400000000D+05 0.000000000000D+00
 2 22 12 20 00 00  0.0-6.321193650365D-04 2.046363078989D-12 0.000000000000D+00
    6.600000000000D+01-1.198437500000D+02 4.350181104229D-09-1.560460888100D+00
   -5.939975380898D-06 2.007885510102D-02 8.083879947662D-06 5.153694664001D+03
    1.728000000000D+05-2.160668373108D-07-1.230261401577D+00 4.712492227554D-07
    9.667863298684D-01 2.262500000000D+02-1.351785634840D+00-8.134624529532D-09
   -3.257278613500D-10 1.000000000000D+00 2.241000000000D+03 0.000000000000D+00
    2.000000000000D+00 0.000000000000D+00-1.769512891769D-08 6.600000000000D+01
    1.655400000000D+05 0.000000000000D+00
 2 22 12 20 02 00  0.0-6.321044638753D-04 2.046363078989D-12 0.000000000000D+00
    6.700000000000D+01-1.075937500000D+02 4.408398091016D-09-5.102199460116D-01
   -5.666166543961D-06 2.007965464145D-02 8.136034011841D-06 5.153697889328D+03
    1.800000000000D+05-2.402812242508D-07-1.230322997743D+00-3.725290298462D-09
    9.667834347535D-01 2.282187500000D+02-1.351859643866D+00-8.489639213849D-09
   -1.517920372729D-10 1.000000000000D+00 2.241000000000D+03 0.000000000000D+00
    2.000000000000D+00 0.000000000000D+00-1.769512891769D-08 6.700000000000D+01
    1.727400000000D+05 0.000000000000D+00
